{
  "links" : {
    "next" : "https://api.nasa.gov/neo/rest/v1/feed?start_date=2012-08-16&end_date=2012-08-16&detailed=true&api_key=t0TVs3DtDT2H8Oy2Zy8m2eVrNsAVKAexjcZXUckd",
    "prev" : "https://api.nasa.gov/neo/rest/v1/feed?start_date=2012-08-14&end_date=2012-08-14&detailed=true&api_key=t0TVs3DtDT2H8Oy2Zy8m2eVrNsAVKAexjcZXUckd",
    "self" : "https://api.nasa.gov/neo/rest/v1/feed?start_date=2012-08-15&end_date=2012-08-15&detailed=true&api_key=t0TVs3DtDT2H8Oy2Zy8m2eVrNsAVKAexjcZXUckd"
  },
  "element_count" : 7,
  "near_earth_objects" : {
    "2012-08-15" : [ {
      "links" : {
        "self" : "https://api.nasa.gov/neo/rest/v1/neo/3764823?api_key=t0TVs3DtDT2H8Oy2Zy8m2eVrNsAVKAexjcZXUckd"
      },
      "neo_reference_id" : "3764823",
      "name" : "(2016 WZ7)",
      "nasa_jpl_url" : "http://ssd.jpl.nasa.gov/sbdb.cgi?sstr=3764823",
      "absolute_magnitude_h" : 22.9,
      "estimated_diameter" : {
        "kilometers" : {
          "estimated_diameter_min" : 0.0699125232,
          "estimated_diameter_max" : 0.1563291544
        },
        "meters" : {
          "estimated_diameter_min" : 69.9125232246,
          "estimated_diameter_max" : 156.3291544087
        },
        "miles" : {
          "estimated_diameter_min" : 0.0434416145,
          "estimated_diameter_max" : 0.097138403
        },
        "feet" : {
          "estimated_diameter_min" : 229.3718026961,
          "estimated_diameter_max" : 512.8909429502
        }
      },
      "is_potentially_hazardous_asteroid" : false,
      "close_approach_data" : [ {
        "close_approach_date" : "2012-08-15",
        "epoch_date_close_approach" : 1345014000000,
        "relative_velocity" : {
          "kilometers_per_second" : "2.4447014828",
          "kilometers_per_hour" : "8800.9253380207",
          "miles_per_hour" : "5468.5527468385"
        },
        "miss_distance" : {
          "astronomical" : "0.4078117743",
          "lunar" : "158.6387786865",
          "kilometers" : "61007772",
          "miles" : "37908472"
        },
        "orbiting_body" : "Earth"
      } ],
      "orbital_data" : {
        "orbit_id" : "8",
        "orbit_determination_date" : "2017-04-06 08:21:55",
        "orbit_uncertainty" : "5",
        "minimum_orbit_intersection" : ".0652282",
        "jupiter_tisserand_invariant" : "4.323",
        "epoch_osculation" : "2458000.5",
        "eccentricity" : ".3493331578065774",
        "semi_major_axis" : "1.579645631393876",
        "inclination" : "4.461420781736745",
        "ascending_node_longitude" : "260.1567548420942",
        "orbital_period" : "725.1668338040586",
        "perihelion_distance" : "1.027823034763689",
        "perihelion_argument" : "128.9514238925415",
        "aphelion_distance" : "2.131468228024064",
        "perihelion_time" : "2457689.374976372174",
        "mean_anomaly" : "154.4541246025618",
        "mean_motion" : ".4964374861320156",
        "equinox" : "J2000"
      }
    } ]
  }
}